OBJECT_NAME,OBJECT_ID,EPOCH,MEAN_MOTION,ECCENTRICITY,INCLINATION,RA_OF_ASC_NODE,ARG_OF_PERICENTER,MEAN_ANOMALY,EPHEMERIS_TYPE,CLASSIFICATION_TYPE,NORAD_CAT_ID,ELEMENT_SET_NO,REV_AT_EPOCH,BSTAR,MEAN_MOTION_DOT,MEAN_MOTION_DDOT
IRIDIUM 138,2017-083B,2026-06-05T10:56:23.204832,14.34216574,.0002417,86.3968,326.6153,88.8838,271.2635,0,U,43071,999,44245,.36068E-4,.121E-5,0
IRIDIUM 116,2017-083C,2026-06-05T10:10:43.012416,14.34217124,.0001759,86.3964,326.9200,96.8347,263.3049,0,U,43072,999,44248,.15571E-4,.63E-6,0
IRIDIUM 130,2017-083D,2026-06-05T11:05:31.100928,14.34218631,.0002018,86.3962,327.1795,87.6740,272.4687,0,U,43073,999,44243,.23229E-3,.67E-5,0
IRIDIUM 151,2017-083E,2026-06-05T10:28:59.150208,14.34217264,.0002094,86.3956,326.9731,90.6462,269.4974,0,U,43074,999,44245,.23607E-4,.86E-6,0
IRIDIUM 134,2017-083F,2026-06-05T11:23:47.181696,14.34218262,.0002093,86.3961,326.9653,88.4812,271.6624,0,U,43075,999,44242,.25242E-4,.9E-6,0
IRIDIUM 137,2017-083G,2026-06-05T10:01:35.061024,14.34217764,.0001759,86.3979,327.0835,100.9832,259.1562,0,U,43076,999,44248,.25017E-4,.9E-6,0
IRIDIUM 141,2017-083H,2026-06-05T11:32:55.165056,14.34217202,.0002081,86.3952,326.8864,90.3594,269.7840,0,U,43077,999,44249,-.22678E-4,-.44E-6,0
IRIDIUM 153,2017-083J,2026-06-05T10:24:03.472992,14.34217689,.0002366,86.3951,295.3861,89.9324,270.2143,0,U,43078,999,44359,.6386E-5,.38E-6,0
IRIDIUM 131,2017-083K,2026-06-05T11:14:39.123168,14.34217452,.0002056,86.3957,327.0769,91.8386,268.3046,0,U,43079,999,44242,-.31234E-4,-.68E-6,0
IRIDIUM 144,2018-030A,2026-06-05T10:33:11.380320,14.34211303,.0001788,86.3953,295.3120,91.1776,268.9625,0,U,43249,999,42845,.34147E-4,.115E-5,0
IRIDIUM 149,2018-030B,2026-06-05T15:43:43.465152,14.34217585,.0002258,86.3950,295.1901,93.0701,267.0753,0,U,43250,999,42850,.62343E-5,.37E-6,0
IRIDIUM 157,2018-030C,2026-06-05T09:29:15.423360,14.34217462,.0002075,86.3947,295.3519,93.2482,266.8951,0,U,43251,999,42844,-.45154E-5,.7E-7,0
IRIDIUM 140,2018-030D,2026-06-05T09:56:39.420096,14.34217668,.000215,86.3951,295.3563,91.7654,268.3788,0,U,43252,999,42850,.60149E-5,.37E-6,0
IRIDIUM 145,2018-030E,2026-06-05T16:20:15.300960,14.34217274,.0001852,86.3952,295.2174,95.8793,264.2614,0,U,43253,999,42847,.21414E-4,.8E-6,0
IRIDIUM 146,2018-030F,2026-06-05T10:51:27.393696,14.34217471,.0001956,86.3946,295.3252,94.2584,265.8835,0,U,43254,999,42845,-.46514E-5,.7E-7,0
IRIDIUM 148,2018-030G,2026-06-05T15:07:11.335584,14.34217663,.0002072,86.3948,295.2938,96.6910,263.4521,0,U,43255,999,42851,-.36022E-5,.1E-6,0
IRIDIUM 142,2018-030H,2026-06-05T16:01:59.379168,14.34217565,.0002015,86.3948,295.1670,95.5096,264.6330,0,U,43256,999,42848,.77506E-5,.41E-6,0
IRIDIUM 150,2018-030J,2026-06-05T15:16:19.445088,14.34217541,.0002153,86.3952,295.2963,91.4801,268.6642,0,U,43257,999,42850,.40665E-5,.31E-6,0
IRIDIUM 143,2018-030K,2026-06-05T14:48:55.406016,14.34217412,.0001971,86.3950,295.3964,94.4218,265.7203,0,U,43258,999,42843,-.43425E-5,.8E-7,0
IRIDIUM 161,2018-047C,2026-06-05T12:30:49.690080,14.43283374,.0002458,86.4478,93.3483,88.8989,271.2494,0,U,43478,999,42345,.97858E-4,.349E-5,0
IRIDIUM 152,2018-047D,2026-06-05T12:29:10.303296,14.34217803,.000237,86.3954,93.2099,85.0721,275.0746,0,U,43479,999,42081,.13236E-4,.57E-6,0
IRIDIUM 147,2018-047E,2026-06-05T12:38:18.182112,14.34216980,.0002033,86.3955,93.2120,83.6721,276.4707,0,U,43480,999,42081,-.65409E-5,.1E-7,0
IRIDIUM 110,2018-047F,2026-06-05T12:47:26.306304,14.34217873,.0002574,86.3956,93.3009,88.7230,271.4260,0,U,43481,999,42080,.11194E-4,.51E-6,0
IRIDIUM 162,2018-047G,2026-06-05T14:01:35.660928,14.43275084,.0002379,86.4476,93.2133,83.6337,276.5135,0,U,43482,999,42345,.11257E-3,.399E-5,0
IRIDIUM 160,2018-061A,2026-06-05T11:29:26.469312,14.34218044,.0002265,86.3968,61.6924,87.8124,272.3331,0,U,43569,999,41169,.24249E-4,.88E-6,0
IRIDIUM 166,2018-061B,2026-06-05T10:25:30.463968,14.34217772,.0002091,86.3965,61.6614,84.9998,275.1436,0,U,43570,999,41171,.60055E-5,.37E-6,0
IRIDIUM 158,2018-061C,2026-06-05T11:20:18.409056,14.34216825,.0002314,86.3967,61.6555,84.3005,275.8454,0,U,43571,999,41168,.31548E-4,.108E-5,0
IRIDIUM 165,2018-061D,2026-06-04T17:31:42.051648,14.34220416,.00021,86.3969,62.0118,83.8508,276.2927,0,U,43572,999,41160,.10259E-3,.307E-5,0
IRIDIUM 155,2018-061E,2026-06-05T11:02:02.482080,14.34217805,.0002193,86.3964,61.5763,83.1520,276.9925,0,U,43573,999,41167,.14201E-4,.6E-6,0
IRIDIUM 154,2018-061F,2026-06-05T10:34:38.455104,14.34217516,.0002046,86.3969,61.7178,86.6220,273.5210,0,U,43574,999,41172,.2392E-4,.87E-6,0
IRIDIUM 163,2018-061G,2026-06-05T11:47:42.080064,14.34220252,.0002378,86.3960,61.6127,82.5099,277.6367,0,U,43575,999,41170,.24338E-4,.88E-6,0
