IRIDIUM 138             
1 43071U 17083B   26156.45582413  .00000121  00000+0  36068-4 0  9996
2 43071  86.3968 326.6153 0002417  88.8838 271.2635 14.34216574442452
IRIDIUM 116             
1 43072U 17083C   26156.42410894  .00000063  00000+0  15571-4 0  9998
2 43072  86.3964 326.9200 0001759  96.8347 263.3049 14.34217124442483
IRIDIUM 130             
1 43073U 17083D   26156.46216552  .00000670  00000+0  23229-3 0  9990
2 43073  86.3962 327.1795 0002018  87.6740 272.4687 14.34218631442436
IRIDIUM 151             
1 43074U 17083E   26156.43679572  .00000086  00000+0  23607-4 0  9995
2 43074  86.3956 326.9731 0002094  90.6462 269.4974 14.34217264442454
IRIDIUM 134             
1 43075U 17083F   26156.47485164  .00000090  00000+0  25242-4 0  9994
2 43075  86.3961 326.9653 0002093  88.4812 271.6624 14.34218262442420
IRIDIUM 137             
1 43076U 17083G   26156.41776691  .00000090  00000+0  25017-4 0  9997
2 43076  86.3979 327.0835 0001759 100.9832 259.1562 14.34217764442488
IRIDIUM 141             
1 43077U 17083H   26156.48119404 -.00000044  00000+0 -22678-4 0  9999
2 43077  86.3952 326.8864 0002081  90.3594 269.7840 14.34217202442499
IRIDIUM 153             
1 43078U 17083J   26156.43337353  .00000038  00000+0  63860-5 0  9990
2 43078  86.3951 295.3861 0002366  89.9324 270.2143 14.34217689443591
IRIDIUM 131             
1 43079U 17083K   26156.46850837 -.00000068  00000+0 -31234-4 0  9995
2 43079  86.3957 327.0769 0002056  91.8386 268.3046 14.34217452442423
IRIDIUM 144             
1 43249U 18030A   26156.43971505  .00000115  00000+0  34147-4 0  9997
2 43249  86.3953 295.3120 0001788  91.1776 268.9625 14.34211303428458
IRIDIUM 149             
1 43250U 18030B   26156.65536418  .00000037  00000+0  62343-5 0  9996
2 43250  86.3950 295.1901 0002258  93.0701 267.0753 14.34217585428500
IRIDIUM 157             
1 43251U 18030C   26156.39531740  .00000007  00000+0 -45154-5 0  9990
2 43251  86.3947 295.3519 0002075  93.2482 266.8951 14.34217462428443
IRIDIUM 140             
1 43252U 18030D   26156.41434514  .00000037  00000+0  60149-5 0  9998
2 43252  86.3951 295.3563 0002150  91.7654 268.3788 14.34217668428506
IRIDIUM 145             
1 43253U 18030E   26156.68073265  .00000080  00000+0  21414-4 0  9999
2 43253  86.3952 295.2174 0001852  95.8793 264.2614 14.34217274428474
IRIDIUM 146             
1 43254U 18030F   26156.45240039  .00000007  00000+0 -46514-5 0  9999
2 43254  86.3946 295.3252 0001956  94.2584 265.8835 14.34217471428451
IRIDIUM 148             
1 43255U 18030G   26156.62999231  .00000010  00000+0 -36022-5 0  9991
2 43255  86.3948 295.2938 0002072  96.6910 263.4521 14.34217663428519
IRIDIUM 142             
1 43256U 18030H   26156.66804837  .00000041  00000+0  77506-5 0  9998
2 43256  86.3948 295.1670 0002015  95.5096 264.6330 14.34217565428480
IRIDIUM 150             
1 43257U 18030J   26156.63633617  .00000031  00000+0  40665-5 0  9997
2 43257  86.3952 295.2963 0002153  91.4801 268.6642 14.34217541428501
IRIDIUM 143             
1 43258U 18030K   26156.61730794  .00000008  00000+0 -43425-5 0  9992
2 43258  86.3950 295.3964 0001971  94.4218 265.7203 14.34217412428434
IRIDIUM 161             
1 43478U 18047C   26156.52140845  .00000349  00000+0  97858-4 0  9991
2 43478  86.4478  93.3483 0002458  88.8989 271.2494 14.43283374423450
IRIDIUM 152             
1 43479U 18047D   26156.52025814  .00000057  00000+0  13236-4 0  9994
2 43479  86.3954  93.2099 0002370  85.0721 275.0746 14.34217803420810
IRIDIUM 147             
1 43480U 18047E   26156.52659933  .00000001  00000+0 -65409-5 0  9991
2 43480  86.3955  93.2120 0002033  83.6721 276.4707 14.34216980420815
IRIDIUM 110             
1 43481U 18047F   26156.53294336  .00000051  00000+0  11194-4 0  9990
2 43481  86.3956  93.3009 0002574  88.7230 271.4260 14.34217873420805
IRIDIUM 162             
1 43482U 18047G   26156.58444052  .00000399  00000+0  11257-3 0  9992
2 43482  86.4476  93.2133 0002379  83.6337 276.5135 14.43275084423455
IRIDIUM 160             
1 43569U 18061A   26156.47877858  .00000088  00000+0  24249-4 0  9997
2 43569  86.3968  61.6924 0002265  87.8124 272.3331 14.34218044411695
IRIDIUM 166             
1 43570U 18061B   26156.43438037  .00000037  00000+0  60055-5 0  9997
2 43570  86.3965  61.6614 0002091  84.9998 275.1436 14.34217772411711
IRIDIUM 158             
1 43571U 18061C   26156.47243529  .00000108  00000+0  31548-4 0  9995
2 43571  86.3967  61.6555 0002314  84.3005 275.8454 14.34216825411680
IRIDIUM 165             
1 43572U 18061D   26155.73034782  .00000307  00000+0  10259-3 0  9999
2 43572  86.3969  62.0118 0002100  83.8508 276.2927 14.34220416411601
IRIDIUM 155             
1 43573U 18061E   26156.45975095  .00000060  00000+0  14201-4 0  9999
2 43573  86.3964  61.5763 0002193  83.1520 276.9925 14.34217805411676
IRIDIUM 154             
1 43574U 18061F   26156.44072286  .00000087  00000+0  23920-4 0  9996
2 43574  86.3969  61.7178 0002046  86.6220 273.5210 14.34217516411721
IRIDIUM 163             
1 43575U 18061G   26156.49145926  .00000088  00000+0  24338-4 0  9999
2 43575  86.3960  61.6127 0002378  82.5099 277.6367 14.34220252411700
